start=new Date('2022-11-12T00:00:00.000Z').valueOf();
sats=[{"ELEMENT_SET_NO":"999","PERIOD":"95.438","MEAN_ANOMALY":"328.1089","CENTER_NAME":"EARTH","EPHEMERIS_TYPE":"0","RCS_SIZE":"LARGE","ECCENTRICITY":"0.00022770","RA_OF_ASC_NODE":"219.9501","OBJECT_NAME":"STARLINK-4141","TLE_LINE1":"1 53138U 22083G   22315.47164049  .00004643  00000-0  30971-3 0  9993","MEAN_ELEMENT_THEORY":"SGP4","PERIAPSIS":"538.191","TIME_SYSTEM":"UTC","MEAN_MOTION":"15.08833268","BSTAR":"0.00030971000000","FILE":"3651603","GP_ID":"217465816","NORAD_CAT_ID":"53138","COUNTRY_CODE":"US","INCLINATION":"53.2165","DECAY_DATE":null,"MEAN_MOTION_DDOT":"0.0000000000000","SEMIMAJOR_AXIS":"6917.901","EPOCH":"2022-11-11T11:19:09.738336","REF_FRAME":"TEME","CLASSIFICATION_TYPE":"U","OBJECT_TYPE":"PAYLOAD","ARG_OF_PERICENTER":"32.0041","OBJECT_ID":"2022-083G","SITE":"AFETR","APOAPSIS":"541.341","LAUNCH_DATE":"2022-07-17","MEAN_MOTION_DOT":"0.00004643","TLE_LINE2":"2 53138  53.2165 219.9501 0002277  32.0041 328.1089 15.08833268 18609","REV_AT_EPOCH":"1860"},{"GP_ID":"217469348","NORAD_CAT_ID":"53139","COUNTRY_CODE":"US","INCLINATION":"53.2158","DECAY_DATE":null,"MEAN_MOTION":"15.08817710","PERIAPSIS":"538.193","TIME_SYSTEM":"UTC","FILE":"3651765","BSTAR":"0.00011423000000","RCS_SIZE":"LARGE","ECCENTRICITY":"0.00023420","RA_OF_ASC_NODE":"224.9310","OBJECT_NAME":"STARLINK-4185","MEAN_ELEMENT_THEORY":"SGP4","TLE_LINE1":"1 53139U 22083H   22315.47942719  .00001529  00000-0  11423-3 0  9993","ELEMENT_SET_NO":"999","PERIOD":"95.439","MEAN_ANOMALY":"329.9707","EPHEMERIS_TYPE":"0","CENTER_NAME":"EARTH","TLE_LINE2":"2 53139  53.2158 224.9310 0002342  30.1419 329.9707 15.08817710 18540","REV_AT_EPOCH":"1854","LAUNCH_DATE":"2022-07-17","MEAN_MOTION_DOT":"0.00001529","OBJECT_TYPE":"PAYLOAD","OBJECT_ID":"2022-083H","ARG_OF_PERICENTER":"30.1419","SITE":"AFETR","APOAPSIS":"541.434","MEAN_MOTION_DDOT":"0.0000000000000","SEMIMAJOR_AXIS":"6917.949","EPOCH":"2022-11-11T11:30:22.509216","REF_FRAME":"TEME","CLASSIFICATION_TYPE":"U"},{"MEAN_MOTION_DDOT":"0.0000000000000","SEMIMAJOR_AXIS":"6917.964","EPOCH":"2022-11-11T17:57:13.896864","REF_FRAME":"TEME","CLASSIFICATION_TYPE":"U","OBJECT_TYPE":"PAYLOAD","ARG_OF_PERICENTER":"30.4400","OBJECT_ID":"2022-083J","SITE":"AFETR","APOAPSIS":"541.550","LAUNCH_DATE":"2022-07-17","MEAN_MOTION_DOT":"0.00003999","TLE_LINE2":"2 53140  53.2161 223.7255 0002488  30.4400 329.6736 15.08812704 17956","REV_AT_EPOCH":"1795","ELEMENT_SET_NO":"999","PERIOD":"95.439","MEAN_ANOMALY":"329.6736","CENTER_NAME":"EARTH","EPHEMERIS_TYPE":"0","RCS_SIZE":"LARGE","RA_OF_ASC_NODE":"223.7255","ECCENTRICITY":"0.00024880","OBJECT_NAME":"STARLINK-4170","TLE_LINE1":"1 53140U 22083J   22315.74807751  .00003999  00000-0  26942-3 0  9996","MEAN_ELEMENT_THEORY":"SGP4","TIME_SYSTEM":"UTC","PERIAPSIS":"538.108","MEAN_MOTION":"15.08812704","BSTAR":"0.00026942000000","FILE":"3651775","GP_ID":"217494785","NORAD_CAT_ID":"53140","COUNTRY_CODE":"US","INCLINATION":"53.2161","DECAY_DATE":null},{"EPOCH":"2022-11-11T04:47:38.555520","SEMIMAJOR_AXIS":"6917.938","MEAN_MOTION_DDOT":"0.0000000000000","CLASSIFICATION_TYPE":"U","REF_FRAME":"TEME","OBJECT_ID":"2022-083K","ARG_OF_PERICENTER":"35.8374","OBJECT_TYPE":"PAYLOAD","APOAPSIS":"541.480","SITE":"AFETR","MEAN_MOTION_DOT":"-0.00001886","LAUNCH_DATE":"2022-07-17","TLE_LINE2":"2 53141  53.2170 226.1659 0002425  35.8374 324.2780 15.08821298 18502","REV_AT_EPOCH":"1850","MEAN_ANOMALY":"324.2780","PERIOD":"95.439","ELEMENT_SET_NO":"999","CENTER_NAME":"EARTH","EPHEMERIS_TYPE":"0","RA_OF_ASC_NODE":"226.1659","ECCENTRICITY":"0.00024250","RCS_SIZE":"LARGE","MEAN_ELEMENT_THEORY":"SGP4","TLE_LINE1":"1 53141U 22083K   22315.19975180 -.00001886  00000-0 -10043-3 0  9998","OBJECT_NAME":"STARLINK-4103","PERIAPSIS":"538.125","MEAN_MOTION":"15.08821298","TIME_SYSTEM":"UTC","FILE":"3651605","BSTAR":"-0.00010043000000","NORAD_CAT_ID":"53141","GP_ID":"217465569","DECAY_DATE":null,"INCLINATION":"53.2170","COUNTRY_CODE":"US"},{"RCS_SIZE":"LARGE","RA_OF_ASC_NODE":"223.7578","ECCENTRICITY":"0.00022380","OBJECT_NAME":"STARLINK-4101","TLE_LINE1":"1 53142U 22083L   22315.74070826  .00003738  00000-0  25290-3 0  9999","MEAN_ELEMENT_THEORY":"SGP4","ELEMENT_SET_NO":"999","PERIOD":"95.438","MEAN_ANOMALY":"319.9249","EPHEMERIS_TYPE":"0","CENTER_NAME":"EARTH","GP_ID":"217494922","NORAD_CAT_ID":"53142","COUNTRY_CODE":"US","DECAY_DATE":null,"INCLINATION":"53.2170","TIME_SYSTEM":"UTC","PERIAPSIS":"538.235","MEAN_MOTION":"15.08827549","BSTAR":"0.00025290000000","FILE":"3651775","OBJECT_TYPE":"PAYLOAD","ARG_OF_PERICENTER":"40.1909","OBJECT_ID":"2022-083L","SITE":"AFETR","APOAPSIS":"541.332","MEAN_MOTION_DDOT":"0.0000000000000","SEMIMAJOR_AXIS":"6917.918","EPOCH":"2022-11-11T17:46:37.193664","REF_FRAME":"TEME","CLASSIFICATION_TYPE":"U","TLE_LINE2":"2 53142  53.2170 223.7578 0002238  40.1909 319.9249 15.08827549 17966","REV_AT_EPOCH":"1796","LAUNCH_DATE":"2022-07-17","MEAN_MOTION_DOT":"0.00003738"},{"NORAD_CAT_ID":"53143","GP_ID":"217494621","COUNTRY_CODE":"US","INCLINATION":"53.2178","DECAY_DATE":null,"PERIAPSIS":"538.342","MEAN_MOTION":"15.08818965","TIME_SYSTEM":"UTC","FILE":"3651775","BSTAR":"0.00036348000000","RCS_SIZE":"LARGE","RA_OF_ASC_NODE":"223.5155","ECCENTRICITY":"0.00021220","OBJECT_NAME":"STARLINK-4102","TLE_LINE1":"1 53143U 22083M   22315.79224147  .00005498  00000-0  36348-3 0  9993","MEAN_ELEMENT_THEORY":"SGP4","ELEMENT_SET_NO":"999","MEAN_ANOMALY":"312.2801","PERIOD":"95.439","CENTER_NAME":"EARTH","EPHEMERIS_TYPE":"0","TLE_LINE2":"2 53143  53.2178 223.5155 0002122  47.8371 312.2801 15.08818965 17965","REV_AT_EPOCH":"1796","LAUNCH_DATE":"2022-07-17","MEAN_MOTION_DOT":"0.00005498","ARG_OF_PERICENTER":"47.8371","OBJECT_ID":"2022-083M","OBJECT_TYPE":"PAYLOAD","SITE":"AFETR","APOAPSIS":"541.278","SEMIMAJOR_AXIS":"6917.945","MEAN_MOTION_DDOT":"0.0000000000000","EPOCH":"2022-11-11T19:00:49.663008","REF_FRAME":"TEME","CLASSIFICATION_TYPE":"U"},{"REF_FRAME":"TEME","CLASSIFICATION_TYPE":"U","MEAN_MOTION_DDOT":"0.0000000000000","SEMIMAJOR_AXIS":"6917.968","EPOCH":"2022-11-11T03:22:52.076928","SITE":"AFETR","APOAPSIS":"542.006","OBJECT_TYPE":"PAYLOAD","OBJECT_ID":"2022-083N","ARG_OF_PERICENTER":"29.3122","LAUNCH_DATE":"2022-07-17","MEAN_MOTION_DOT":"-0.00001172","REV_AT_EPOCH":"1786","TLE_LINE2":"2 53144  53.2187 226.4458 0003141  29.3122 330.8046 15.08811272 17865","EPHEMERIS_TYPE":"0","CENTER_NAME":"EARTH","ELEMENT_SET_NO":"999","PERIOD":"95.439","MEAN_ANOMALY":"330.8046","OBJECT_NAME":"STARLINK-4100","MEAN_ELEMENT_THEORY":"SGP4","TLE_LINE1":"1 53144U 22083N   22315.14088052 -.00001172  00000-0 -55551-4 0  9991","RCS_SIZE":"LARGE","RA_OF_ASC_NODE":"226.4458","ECCENTRICITY":"0.00031410","FILE":"3651496","BSTAR":"-0.00005555100000","TIME_SYSTEM":"UTC","PERIAPSIS":"537.660","MEAN_MOTION":"15.08811272","COUNTRY_CODE":"US","DECAY_DATE":null,"INCLINATION":"53.2187","GP_ID":"217437054","NORAD_CAT_ID":"53144"},{"OBJECT_NAME":"STARLINK-4106","TLE_LINE1":"1 53145U 22083P   22315.71863201  .00001246  00000-0  96413-4 0  9994","MEAN_ELEMENT_THEORY":"SGP4","RCS_SIZE":"LARGE","RA_OF_ASC_NODE":"223.8376","ECCENTRICITY":"0.00023060","EPHEMERIS_TYPE":"0","CENTER_NAME":"EARTH","ELEMENT_SET_NO":"999","PERIOD":"95.438","MEAN_ANOMALY":"313.2944","COUNTRY_CODE":"US","DECAY_DATE":null,"INCLINATION":"53.2180","GP_ID":"217495348","NORAD_CAT_ID":"53145","BSTAR":"0.00009641300000","FILE":"3651775","TIME_SYSTEM":"UTC","PERIAPSIS":"538.175","MEAN_MOTION":"15.08831750","SITE":"AFETR","APOAPSIS":"541.366","OBJECT_TYPE":"PAYLOAD","OBJECT_ID":"2022-083P","ARG_OF_PERICENTER":"46.8241","REF_FRAME":"TEME","CLASSIFICATION_TYPE":"U","MEAN_MOTION_DDOT":"0.0000000000000","SEMIMAJOR_AXIS":"6917.906","EPOCH":"2022-11-11T17:14:49.805664","REV_AT_EPOCH":"1795","TLE_LINE2":"2 53145  53.2180 223.8376 0002306  46.8241 313.2944 15.08831750 17952","LAUNCH_DATE":"2022-07-17","MEAN_MOTION_DOT":"0.00001246"},{"OBJECT_NAME":"STARLINK-4099","TLE_LINE1":"1 53146U 22083Q   22315.86582458  .00005187  00000-0  34373-3 0  9997","MEAN_ELEMENT_THEORY":"SGP4","RCS_SIZE":"LARGE","RA_OF_ASC_NODE":"223.1859","ECCENTRICITY":"0.00019730","EPHEMERIS_TYPE":"0","CENTER_NAME":"EARTH","ELEMENT_SET_NO":"999","MEAN_ANOMALY":"315.0336","PERIOD":"95.438","COUNTRY_CODE":"US","INCLINATION":"53.2173","DECAY_DATE":null,"NORAD_CAT_ID":"53146","GP_ID":"217494505","FILE":"3651775","BSTAR":"0.00034373000000","TIME_SYSTEM":"UTC","PERIAPSIS":"538.382","MEAN_MOTION":"15.08839522","SITE":"AFETR","APOAPSIS":"541.112","ARG_OF_PERICENTER":"45.0816","OBJECT_ID":"2022-083Q","OBJECT_TYPE":"PAYLOAD","REF_FRAME":"TEME","CLASSIFICATION_TYPE":"U","SEMIMAJOR_AXIS":"6917.882","MEAN_MOTION_DDOT":"0.0000000000000","EPOCH":"2022-11-11T20:46:47.243712","REV_AT_EPOCH":"1797","TLE_LINE2":"2 53146  53.2173 223.1859 0001973  45.0816 315.0336 15.08839522 17974","LAUNCH_DATE":"2022-07-17","MEAN_MOTION_DOT":"0.00005187"},{"LAUNCH_DATE":"2022-07-17","MEAN_MOTION_DOT":"0.00011052","TLE_LINE2":"2 53147  53.2170 223.5557 0002394  40.7260 319.3911 15.08838623 18613","REV_AT_EPOCH":"1861","SEMIMAJOR_AXIS":"6917.885","MEAN_MOTION_DDOT":"0.0000000000000","EPOCH":"2022-11-11T18:44:54.817728","REF_FRAME":"TEME","CLASSIFICATION_TYPE":"U","ARG_OF_PERICENTER":"40.7260","OBJECT_ID":"2022-083R","OBJECT_TYPE":"PAYLOAD","SITE":"AFETR","APOAPSIS":"541.406","PERIAPSIS":"538.093","TIME_SYSTEM":"UTC","MEAN_MOTION":"15.08838623","BSTAR":"0.00071144000000","FILE":"3651775","NORAD_CAT_ID":"53147","GP_ID":"217494205","COUNTRY_CODE":"US","INCLINATION":"53.2170","DECAY_DATE":null,"ELEMENT_SET_NO":"999","MEAN_ANOMALY":"319.3911","PERIOD":"95.438","CENTER_NAME":"EARTH","EPHEMERIS_TYPE":"0","RCS_SIZE":"LARGE","RA_OF_ASC_NODE":"223.5557","ECCENTRICITY":"0.00023940","OBJECT_NAME":"STARLINK-4094","TLE_LINE1":"1 53147U 22083R   22315.78119002  .00011052  00000-0  71144-3 0  9995","MEAN_ELEMENT_THEORY":"SGP4"}];
